IRIDIUM 144             
1 43249U 18030A   24216.89448322  .00000096  00000+0  27193-4 0  9999
2 43249  86.3966 215.5283 0002205  82.6713 277.4733 14.34218177332340
IRIDIUM 149             
1 43250U 18030B   24216.76129087  .00000248  00000+0  81557-4 0  9994
2 43250  86.3966 215.5587 0002120  86.4697 273.6742 14.34218431332349
IRIDIUM 157             
1 43251U 18030C   24216.91985370  .00000040  00000+0  70888-5 0  9993
2 43251  86.3967 215.5302 0002241  96.9674 263.1776 14.34218076332347
IRIDIUM 140             
1 43252U 18030D   24216.93888105  .00000115  00000+0  33867-4 0  9992
2 43252  86.3966 215.5368 0002452  81.0497 279.0976 14.34218683332400
IRIDIUM 145             
1 43253U 18030E   24216.71689065  .00000059  00000+0  14071-4 0  9996
2 43253  86.3966 215.6030 0002023  80.1915 279.9509 14.34218000332300
IRIDIUM 146             
1 43254U 18030F   24216.69786272  .00000099  00000+0  28338-4 0  9997
2 43254  86.3965 215.6257 0002213  84.6328 275.5120 14.34218333332310
IRIDIUM 148             
1 43255U 18030G   24216.94522256  .00000173  00000+0  54565-4 0  9990
2 43255  86.3966 215.5549 0002173  92.0826 268.0618 14.34219142332381
IRIDIUM 142             
1 43256U 18030H   24216.91351114  .00000041  00000+0  76241-5 0  9991
2 43256  86.3965 215.4823 0002107  82.8776 277.2660 14.34217902332340
